SCD 1                   
1 22490U 93009B   26200.20439588  .00000293  00000+0  29380-4 0  9996
2 22490  24.9707   9.8871 0042051 116.7391  43.8082 14.46129525765755
TECHSAT 1B (GO-32)      
1 25397U 98043D   26200.44634488  .00000001  00000+0  20729-4 0  9995
2 25397  99.0088 194.0215 0002289 108.4800 251.6627 14.24433824455925
SCD 2                   
1 25504U 98060A   26200.49227201  .00000258  00000+0  21232-4 0  9994
2 25504  24.9938 232.9362 0016986 104.2325  43.5495 14.45535512465007
DLR-TUBSAT              
1 25757U 99029B   26200.46510716  .00000004  00000+0  12968-4 0  9998
2 25757  98.6713 197.0341 0013036 250.6388 109.3398 14.52433739437932
TERRA                   
1 25994U 99068A   26200.63204532  .00000143  00000+0  38001-4 0  9999
2 25994  97.9438 248.8889 0003567 114.1639  37.2751 14.61125566414342
MAROC-TUBSAT            
1 27004U 01056D   26200.49407904 -.00000042  00000+0  56279-5 0  9992
2 27004  99.8102  17.9652 0020538  61.4923 358.0434 13.70263605230619
AQUA                    
1 27424U 02022A   26200.62659245  .00000315  00000+0  72466-4 0  9991
2 27424  98.4299 170.5623 0001279 101.7999 313.2906 14.62131948288013
SHIYAN-1 (SY-1)         
1 28220U 04012A   26200.20846391  .00006302  00000+0  19116-3 0  9995
2 28220  97.8677 280.3747 0004221 256.0240 104.0532 15.34509828216008
AURA                    
1 28376U 04026A   26200.57795845  .00000330  00000+0  76574-4 0  9996
2 28376  98.3432 157.3035 0001386  94.0051 266.1308 14.61371238170941
IRS-P5 (CARTOSAT-1)     
1 28649U 05017A   26200.02109667  .00000666  00000+0  72487-4 0  9992
2 28649  97.5306 221.6419 0001133  52.0607 308.0714 14.91122721148561
SINAH 1                 
1 28893U 05043D   26200.58344269  .00000127  00000+0  33512-4 0  9990
2 28893  98.2900 335.1031 0014706 169.9399 190.2100 14.64177013105261
RESURS-DK 1             
1 29228U 06021A   26200.49073612  .00000870  00000+0  54840-4 0  9993
2 29228  69.9302 255.9238 0007370 266.3821  93.6502 15.13327584107465
ARIRANG-2 (KOMPSAT-2)   
1 29268U 06031A   26200.61206529 -.00000098  00000+0 -99300-5 0  9992
2 29268  97.8317  23.4909 0013832 336.5093 115.1799 14.64676309 66222
LAPAN-TUBSAT            
1 29709U 07001A   26200.57626082  .00000698  00000+0  86432-4 0  9990
2 29709  98.1357 200.5332 0013687  81.0740 279.2024 14.85981590 55963
HAIYANG-1B              
1 31113U 07010A   26200.44784989  .00000031  00000+0  27693-4 0  9994
2 31113  98.3518 181.0452 0014772 104.1828 256.0998 14.31033962  5254
COSMO-SKYMED 1          
1 31598U 07023A   26200.61625874  .00001672  00000+0  14964-3 0  9999
2 31598  97.8852  32.7469 0001747  99.0749 261.0670 14.97233686 34643
TERRASAR-X              
1 31698U 07026A   26200.46718930  .00000140  00000+0  98360-5 0  9995
2 31698  97.4461 207.7136 0001650  90.1408 270.0015 15.19149681 58126
WORLDVIEW-1 (WV-1)      
1 32060U 07041A   26200.52129633  .00003052  00000+0  12675-3 0  9997
2 32060  97.3906 319.8132 0001957 188.4972 171.6233 15.24585749 47807
YAOGAN-3                
1 32289U 07055A   26200.61226990  .00000662  00000+0  72790-4 0  9998
2 32289  97.8137 230.1699 0001366  78.4099 281.7273 14.90888903 10702
COSMO-SKYMED 2          
1 32376U 07059A   26200.63362036  .00000156  00000+0  26218-4 0  9995
2 32376  97.8896  23.7624 0001448  94.0823 266.0556 14.82152387  6813
RADARSAT-2              
1 32382U 07061A   26200.57426292  .00000025  00000+0  26512-4 0  9995
2 32382  98.5785 207.0448 0001333  83.8418 276.2916 14.29983889970582
CARTOSAT-2A             
1 32783U 08021A   26200.58258991  .00000675  00000+0  97460-4 0  9998
2 32783  97.7610 248.1830 0012137  13.8086 346.3455 14.79281311983592
HUANJING 1A (HJ-1A)     
1 33320U 08041A   26200.59814113  .00000933  00000+0  11780-3 0  9990
2 33320  97.6705 185.1876 0020100  36.1856 324.0714 14.84056387963213
HUANJING 1B (HJ-1B)     
1 33321U 08041B   26200.64957395  .00000250  00000+0  36415-4 0  9992
2 33321  97.6539 188.3098 0037956  77.2571 283.2882 14.83368367963223
GEOEYE 1                
1 33331U 08042A   26200.53352706  .00000161  00000+0  39318-4 0  9993
2 33331  98.1324 274.0785 0003639 330.8989  29.2010 14.64651261954880
THEOS                   
1 33396U 08049A   26200.58985063 -.00000025  00000+0  81232-5 0  9997
2 33396  98.5548 256.8187 0001122  89.8066 270.3240 14.20136824922568
COSMO-SKYMED 3          
1 33412U 08054A   26200.61102406  .00001973  00000+0  13537-3 0  9991
2 33412  97.8248  59.7169 0016176 151.6581 208.5529 15.07134158961820
YAOGAN-4                
1 33446U 08061A   26200.61606074  .00000433  00000+0  59544-4 0  9995
2 33446  97.9302 133.8883 0013466 330.7062  29.3395 14.83255878950474
GOSAT (IBUKI)           
1 33492U 09002A   26200.59306963  .00000269  00000+0  55930-4 0  9995
2 33492  98.0916 311.2720 0001021  87.4454 272.6867 14.67535964936217
DEIMOS-1                
1 35681U 09041A   26200.60732646  .00000438  00000+0  71698-4 0  9990
2 35681  97.7442 356.4359 0002794  85.8614 274.2915 14.75266936911669
